{"type":"FeatureCollection","features":[{"type":"Feature","properties":{"stop_id":"A10-1","stop_code":"902101","stop_name":"Lake Merritt","zone_id":"LAKE","location_type":0,"parent_station":"LAKE","platform_code":"1","routes":[{"route_id":"12","route_short_name":"Blue-N","route_long_name":"Daly City to Dublin/Pleasanton","route_type":1,"route_url":"https://www.bart.gov/schedules/bylineresults?route=12","route_color":"#0099CC","route_text_color":"#FFFFFF"},{"route_id":"4","route_short_name":"Orange-S","route_long_name":"Richmond to Berryessa/North San Jose","route_type":1,"route_url":"https://www.bart.gov/schedules/bylineresults?route=4","route_color":"#FF9933","route_text_color":"#000000"},{"route_id":"6","route_short_name":"Green-N","route_long_name":"Daly City to Berryessa/North San Jose","route_type":1,"route_url":"https://www.bart.gov/schedules/bylineresults?route=6","route_color":"#339933","route_text_color":"#FFFFFF"}],"agency_name":"Bay Area Rapid Transit"},"geometry":{"type":"Point","coordinates":[-122.265287,37.797296]}},{"type":"Feature","properties":{"stop_id":"A10-2","stop_code":"902102","stop_name":"Lake Merritt","zone_id":"LAKE","location_type":0,"parent_station":"LAKE","platform_code":"2","routes":[{"route_id":"11","route_short_name":"Blue-S","route_long_name":"Dublin/Pleasanton to Daly City","route_type":1,"route_url":"https://www.bart.gov/schedules/bylineresults?route=11","route_color":"#0099CC","route_text_color":"#FFFFFF"},{"route_id":"3","route_short_name":"Orange-N","route_long_name":"Berryessa/North San Jose to Richmond","route_type":1,"route_url":"https://www.bart.gov/schedules/bylineresults?route=3","route_color":"#FF9933","route_text_color":"#000000"},{"route_id":"5","route_short_name":"Green-S","route_long_name":"Berryessa/North San Jose to Daly City","route_type":1,"route_url":"https://www.bart.gov/schedules/bylineresults?route=5","route_color":"#339933","route_text_color":"#FFFFFF"}],"agency_name":"Bay Area Rapid Transit"},"geometry":{"type":"Point","coordinates":[-122.265232,37.797357]}},{"type":"Feature","properties":{"stop_id":"A20-1","stop_code":"902201","stop_name":"Fruitvale","zone_id":"FTVL","location_type":0,"parent_station":"FTVL","platform_code":"1","routes":[{"route_id":"12","route_short_name":"Blue-N","route_long_name":"Daly City to Dublin/Pleasanton","route_type":1,"route_url":"https://www.bart.gov/schedules/bylineresults?route=12","route_color":"#0099CC","route_text_color":"#FFFFFF"},{"route_id":"4","route_short_name":"Orange-S","route_long_name":"Richmond to Berryessa/North San Jose","route_type":1,"route_url":"https://www.bart.gov/schedules/bylineresults?route=4","route_color":"#FF9933","route_text_color":"#000000"},{"route_id":"6","route_short_name":"Green-N","route_long_name":"Daly City to Berryessa/North San Jose","route_type":1,"route_url":"https://www.bart.gov/schedules/bylineresults?route=6","route_color":"#339933","route_text_color":"#FFFFFF"}],"agency_name":"Bay Area Rapid Transit"},"geometry":{"type":"Point","coordinates":[-122.224121,37.774818]}},{"type":"Feature","properties":{"stop_id":"A20-2","stop_code":"902202","stop_name":"Fruitvale","zone_id":"FTVL","location_type":0,"parent_station":"FTVL","platform_code":"2","routes":[{"route_id":"11","route_short_name":"Blue-S","route_long_name":"Dublin/Pleasanton to Daly City","route_type":1,"route_url":"https://www.bart.gov/schedules/bylineresults?route=11","route_color":"#0099CC","route_text_color":"#FFFFFF"},{"route_id":"3","route_short_name":"Orange-N","route_long_name":"Berryessa/North San Jose to Richmond","route_type":1,"route_url":"https://www.bart.gov/schedules/bylineresults?route=3","route_color":"#FF9933","route_text_color":"#000000"},{"route_id":"5","route_short_name":"Green-S","route_long_name":"Berryessa/North San Jose to Daly City","route_type":1,"route_url":"https://www.bart.gov/schedules/bylineresults?route=5","route_color":"#339933","route_text_color":"#FFFFFF"}],"agency_name":"Bay Area Rapid Transit"},"geometry":{"type":"Point","coordinates":[-122.224067,37.774873]}},{"type":"Feature","properties":{"stop_id":"A30-1","stop_code":"902301","stop_name":"Coliseum","zone_id":"COLS","location_type":0,"parent_station":"COLS","platform_code":"1","routes":[{"route_id":"12","route_short_name":"Blue-N","route_long_name":"Daly City to Dublin/Pleasanton","route_type":1,"route_url":"https://www.bart.gov/schedules/bylineresults?route=12","route_color":"#0099CC","route_text_color":"#FFFFFF"},{"route_id":"4","route_short_name":"Orange-S","route_long_name":"Richmond to Berryessa/North San Jose","route_type":1,"route_url":"https://www.bart.gov/schedules/bylineresults?route=4","route_color":"#FF9933","route_text_color":"#000000"},{"route_id":"6","route_short_name":"Green-N","route_long_name":"Daly City to Berryessa/North San Jose","route_type":1,"route_url":"https://www.bart.gov/schedules/bylineresults?route=6","route_color":"#339933","route_text_color":"#FFFFFF"}],"agency_name":"Bay Area Rapid Transit"},"geometry":{"type":"Point","coordinates":[-122.19676,37.753558]}},{"type":"Feature","properties":{"stop_id":"A30-2","stop_code":"902302","stop_name":"Coliseum","zone_id":"COLS","location_type":0,"parent_station":"COLS","platform_code":"2","routes":[{"route_id":"11","route_short_name":"Blue-S","route_long_name":"Dublin/Pleasanton to Daly City","route_type":1,"route_url":"https://www.bart.gov/schedules/bylineresults?route=11","route_color":"#0099CC","route_text_color":"#FFFFFF"},{"route_id":"3","route_short_name":"Orange-N","route_long_name":"Berryessa/North San Jose to Richmond","route_type":1,"route_url":"https://www.bart.gov/schedules/bylineresults?route=3","route_color":"#FF9933","route_text_color":"#000000"},{"route_id":"5","route_short_name":"Green-S","route_long_name":"Berryessa/North San Jose to Daly City","route_type":1,"route_url":"https://www.bart.gov/schedules/bylineresults?route=5","route_color":"#339933","route_text_color":"#FFFFFF"}],"agency_name":"Bay Area Rapid Transit"},"geometry":{"type":"Point","coordinates":[-122.196698,37.753604]}},{"type":"Feature","properties":{"stop_id":"H10","stop_code":"902303","stop_name":"Coliseum - OAC","zone_id":"COLS","location_type":0,"parent_station":"COLS","platform_code":"3","routes":[{"route_id":"19","route_short_name":"Grey-N","route_long_name":"Oakland Int'l Airport OAK to Coliseum","route_type":1,"route_url":"https://www.bart.gov/schedules/bylineresults?route=19","route_color":"#B0BEC7","route_text_color":"#000000"},{"route_id":"20","route_short_name":"Grey-S","route_long_name":"Coliseum to Oakland Int'l Airport OAK","route_type":1,"route_url":"https://www.bart.gov/schedules/bylineresults?route=20","route_color":"#B0BEC7","route_text_color":"#000000"}],"agency_name":"Bay Area Rapid Transit"},"geometry":{"type":"Point","coordinates":[-122.19627,37.752225]}},{"type":"Feature","properties":{"stop_id":"A40-1","stop_code":"902401","stop_name":"San Leandro","zone_id":"SANL","location_type":0,"parent_station":"SANL","platform_code":"1","routes":[{"route_id":"12","route_short_name":"Blue-N","route_long_name":"Daly City to Dublin/Pleasanton","route_type":1,"route_url":"https://www.bart.gov/schedules/bylineresults?route=12","route_color":"#0099CC","route_text_color":"#FFFFFF"},{"route_id":"4","route_short_name":"Orange-S","route_long_name":"Richmond to Berryessa/North San Jose","route_type":1,"route_url":"https://www.bart.gov/schedules/bylineresults?route=4","route_color":"#FF9933","route_text_color":"#000000"},{"route_id":"6","route_short_name":"Green-N","route_long_name":"Daly City to Berryessa/North San Jose","route_type":1,"route_url":"https://www.bart.gov/schedules/bylineresults?route=6","route_color":"#339933","route_text_color":"#FFFFFF"}],"agency_name":"Bay Area Rapid Transit"},"geometry":{"type":"Point","coordinates":[-122.160792,37.721773]}},{"type":"Feature","properties":{"stop_id":"A40-2","stop_code":"902402","stop_name":"San Leandro","zone_id":"SANL","location_type":0,"parent_station":"SANL","platform_code":"2","routes":[{"route_id":"11","route_short_name":"Blue-S","route_long_name":"Dublin/Pleasanton to Daly City","route_type":1,"route_url":"https://www.bart.gov/schedules/bylineresults?route=11","route_color":"#0099CC","route_text_color":"#FFFFFF"},{"route_id":"3","route_short_name":"Orange-N","route_long_name":"Berryessa/North San Jose to Richmond","route_type":1,"route_url":"https://www.bart.gov/schedules/bylineresults?route=3","route_color":"#FF9933","route_text_color":"#000000"},{"route_id":"5","route_short_name":"Green-S","route_long_name":"Berryessa/North San Jose to Daly City","route_type":1,"route_url":"https://www.bart.gov/schedules/bylineresults?route=5","route_color":"#339933","route_text_color":"#FFFFFF"}],"agency_name":"Bay Area Rapid Transit"},"geometry":{"type":"Point","coordinates":[-122.160713,37.721806]}},{"type":"Feature","properties":{"stop_id":"A50-1","stop_code":"902501","stop_name":"Bay Fair","zone_id":"BAYF","location_type":0,"parent_station":"BAYF","platform_code":"1","routes":[{"route_id":"12","route_short_name":"Blue-N","route_long_name":"Daly City to Dublin/Pleasanton","route_type":1,"route_url":"https://www.bart.gov/schedules/bylineresults?route=12","route_color":"#0099CC","route_text_color":"#FFFFFF"},{"route_id":"4","route_short_name":"Orange-S","route_long_name":"Richmond to Berryessa/North San Jose","route_type":1,"route_url":"https://www.bart.gov/schedules/bylineresults?route=4","route_color":"#FF9933","route_text_color":"#000000"},{"route_id":"6","route_short_name":"Green-N","route_long_name":"Daly City to Berryessa/North San Jose","route_type":1,"route_url":"https://www.bart.gov/schedules/bylineresults?route=6","route_color":"#339933","route_text_color":"#FFFFFF"}],"agency_name":"Bay Area Rapid Transit"},"geometry":{"type":"Point","coordinates":[-122.126488,37.696887]}},{"type":"Feature","properties":{"stop_id":"A50-2","stop_code":"902502","stop_name":"Bay Fair","zone_id":"BAYF","location_type":0,"parent_station":"BAYF","platform_code":"2","routes":[{"route_id":"11","route_short_name":"Blue-S","route_long_name":"Dublin/Pleasanton to Daly City","route_type":1,"route_url":"https://www.bart.gov/schedules/bylineresults?route=11","route_color":"#0099CC","route_text_color":"#FFFFFF"},{"route_id":"12","route_short_name":"Blue-N","route_long_name":"Daly City to Dublin/Pleasanton","route_type":1,"route_url":"https://www.bart.gov/schedules/bylineresults?route=12","route_color":"#0099CC","route_text_color":"#FFFFFF"},{"route_id":"3","route_short_name":"Orange-N","route_long_name":"Berryessa/North San Jose to Richmond","route_type":1,"route_url":"https://www.bart.gov/schedules/bylineresults?route=3","route_color":"#FF9933","route_text_color":"#000000"},{"route_id":"5","route_short_name":"Green-S","route_long_name":"Berryessa/North San Jose to Daly City","route_type":1,"route_url":"https://www.bart.gov/schedules/bylineresults?route=5","route_color":"#339933","route_text_color":"#FFFFFF"}],"agency_name":"Bay Area Rapid Transit"},"geometry":{"type":"Point","coordinates":[-122.126431,37.696938]}},{"type":"Feature","properties":{"stop_id":"A60-1","stop_code":"902601","stop_name":"Hayward","zone_id":"HAYW","location_type":0,"parent_station":"HAYW","platform_code":"1","routes":[{"route_id":"4","route_short_name":"Orange-S","route_long_name":"Richmond to Berryessa/North San Jose","route_type":1,"route_url":"https://www.bart.gov/schedules/bylineresults?route=4","route_color":"#FF9933","route_text_color":"#000000"},{"route_id":"6","route_short_name":"Green-N","route_long_name":"Daly City to Berryessa/North San Jose","route_type":1,"route_url":"https://www.bart.gov/schedules/bylineresults?route=6","route_color":"#339933","route_text_color":"#FFFFFF"}],"agency_name":"Bay Area Rapid Transit"},"geometry":{"type":"Point","coordinates":[-122.087,37.669678]}},{"type":"Feature","properties":{"stop_id":"A60-2","stop_code":"902602","stop_name":"Hayward","zone_id":"HAYW","location_type":0,"parent_station":"HAYW","platform_code":"2","routes":[{"route_id":"3","route_short_name":"Orange-N","route_long_name":"Berryessa/North San Jose to Richmond","route_type":1,"route_url":"https://www.bart.gov/schedules/bylineresults?route=3","route_color":"#FF9933","route_text_color":"#000000"},{"route_id":"5","route_short_name":"Green-S","route_long_name":"Berryessa/North San Jose to Daly City","route_type":1,"route_url":"https://www.bart.gov/schedules/bylineresults?route=5","route_color":"#339933","route_text_color":"#FFFFFF"}],"agency_name":"Bay Area Rapid Transit"},"geometry":{"type":"Point","coordinates":[-122.086941,37.669731]}},{"type":"Feature","properties":{"stop_id":"A70-1","stop_code":"902701","stop_name":"South Hayward","zone_id":"SHAY","location_type":0,"parent_station":"SHAY","platform_code":"1","routes":[{"route_id":"4","route_short_name":"Orange-S","route_long_name":"Richmond to Berryessa/North San Jose","route_type":1,"route_url":"https://www.bart.gov/schedules/bylineresults?route=4","route_color":"#FF9933","route_text_color":"#000000"},{"route_id":"6","route_short_name":"Green-N","route_long_name":"Daly City to Berryessa/North San Jose","route_type":1,"route_url":"https://www.bart.gov/schedules/bylineresults?route=6","route_color":"#339933","route_text_color":"#FFFFFF"}],"agency_name":"Bay Area Rapid Transit"},"geometry":{"type":"Point","coordinates":[-122.057233,37.634328]}},{"type":"Feature","properties":{"stop_id":"A70-2","stop_code":"902702","stop_name":"South Hayward","zone_id":"SHAY","location_type":0,"parent_station":"SHAY","platform_code":"2","routes":[{"route_id":"3","route_short_name":"Orange-N","route_long_name":"Berryessa/North San Jose to Richmond","route_type":1,"route_url":"https://www.bart.gov/schedules/bylineresults?route=3","route_color":"#FF9933","route_text_color":"#000000"},{"route_id":"5","route_short_name":"Green-S","route_long_name":"Berryessa/North San Jose to Daly City","route_type":1,"route_url":"https://www.bart.gov/schedules/bylineresults?route=5","route_color":"#339933","route_text_color":"#FFFFFF"}],"agency_name":"Bay Area Rapid Transit"},"geometry":{"type":"Point","coordinates":[-122.057158,37.634363]}},{"type":"Feature","properties":{"stop_id":"A80-1","stop_code":"902801","stop_name":"Union City","zone_id":"UCTY","location_type":0,"parent_station":"UCTY","platform_code":"1","routes":[{"route_id":"4","route_short_name":"Orange-S","route_long_name":"Richmond to Berryessa/North San Jose","route_type":1,"route_url":"https://www.bart.gov/schedules/bylineresults?route=4","route_color":"#FF9933","route_text_color":"#000000"},{"route_id":"6","route_short_name":"Green-N","route_long_name":"Daly City to Berryessa/North San Jose","route_type":1,"route_url":"https://www.bart.gov/schedules/bylineresults?route=6","route_color":"#339933","route_text_color":"#FFFFFF"}],"agency_name":"Bay Area Rapid Transit"},"geometry":{"type":"Point","coordinates":[-122.017292,37.590714]}},{"type":"Feature","properties":{"stop_id":"A80-2","stop_code":"902802","stop_name":"Union City","zone_id":"UCTY","location_type":0,"parent_station":"UCTY","platform_code":"2","routes":[{"route_id":"3","route_short_name":"Orange-N","route_long_name":"Berryessa/North San Jose to Richmond","route_type":1,"route_url":"https://www.bart.gov/schedules/bylineresults?route=3","route_color":"#FF9933","route_text_color":"#000000"},{"route_id":"5","route_short_name":"Green-S","route_long_name":"Berryessa/North San Jose to Daly City","route_type":1,"route_url":"https://www.bart.gov/schedules/bylineresults?route=5","route_color":"#339933","route_text_color":"#FFFFFF"}],"agency_name":"Bay Area Rapid Transit"},"geometry":{"type":"Point","coordinates":[-122.01723,37.590765]}},{"type":"Feature","properties":{"stop_id":"A90-1","stop_code":"902901","stop_name":"Fremont","zone_id":"FRMT","location_type":0,"parent_station":"FRMT","platform_code":"1","routes":[{"route_id":"4","route_short_name":"Orange-S","route_long_name":"Richmond to Berryessa/North San Jose","route_type":1,"route_url":"https://www.bart.gov/schedules/bylineresults?route=4","route_color":"#FF9933","route_text_color":"#000000"},{"route_id":"6","route_short_name":"Green-N","route_long_name":"Daly City to Berryessa/North San Jose","route_type":1,"route_url":"https://www.bart.gov/schedules/bylineresults?route=6","route_color":"#339933","route_text_color":"#FFFFFF"}],"agency_name":"Bay Area Rapid Transit"},"geometry":{"type":"Point","coordinates":[-121.976658,37.557459]}},{"type":"Feature","properties":{"stop_id":"A90-2","stop_code":"902902","stop_name":"Fremont","zone_id":"FRMT","location_type":0,"parent_station":"FRMT","platform_code":"2","routes":[{"route_id":"3","route_short_name":"Orange-N","route_long_name":"Berryessa/North San Jose to Richmond","route_type":1,"route_url":"https://www.bart.gov/schedules/bylineresults?route=3","route_color":"#FF9933","route_text_color":"#000000"},{"route_id":"5","route_short_name":"Green-S","route_long_name":"Berryessa/North San Jose to Daly City","route_type":1,"route_url":"https://www.bart.gov/schedules/bylineresults?route=5","route_color":"#339933","route_text_color":"#FFFFFF"}],"agency_name":"Bay Area Rapid Transit"},"geometry":{"type":"Point","coordinates":[-121.976605,37.557513]}},{"type":"Feature","properties":{"stop_id":"C10-1","stop_code":"903101","stop_name":"Rockridge","zone_id":"ROCK","location_type":0,"parent_station":"ROCK","platform_code":"1","routes":[{"route_id":"2","route_short_name":"Yellow-N","route_long_name":"Millbrae/SF Int'l SFO to Antioch","route_type":1,"route_url":"https://www.bart.gov/schedules/bylineresults?route=2","route_color":"#FFFF33","route_text_color":"#000000"}],"agency_name":"Bay Area Rapid Transit"},"geometry":{"type":"Point","coordinates":[-122.251225,37.844725]}},{"type":"Feature","properties":{"stop_id":"C10-2","stop_code":"903102","stop_name":"Rockridge","zone_id":"ROCK","location_type":0,"parent_station":"ROCK","platform_code":"2","routes":[{"route_id":"1","route_short_name":"Yellow-S","route_long_name":"Antioch to SF Int'l Airport SFO/Millbrae","route_type":1,"route_url":"https://www.bart.gov/schedules/bylineresults?route=1","route_color":"#FFFF33","route_text_color":"#000000"}],"agency_name":"Bay Area Rapid Transit"},"geometry":{"type":"Point","coordinates":[-122.251271,37.844795]}},{"type":"Feature","properties":{"stop_id":"C20-1","stop_code":"903201","stop_name":"Orinda","zone_id":"ORIN","location_type":0,"parent_station":"ORIN","platform_code":"1","routes":[{"route_id":"2","route_short_name":"Yellow-N","route_long_name":"Millbrae/SF Int'l SFO to Antioch","route_type":1,"route_url":"https://www.bart.gov/schedules/bylineresults?route=2","route_color":"#FFFF33","route_text_color":"#000000"}],"agency_name":"Bay Area Rapid Transit"},"geometry":{"type":"Point","coordinates":[-122.183643,37.87847]}},{"type":"Feature","properties":{"stop_id":"C20-2","stop_code":"903202","stop_name":"Orinda","zone_id":"ORIN","location_type":0,"parent_station":"ORIN","platform_code":"2","routes":[{"route_id":"1","route_short_name":"Yellow-S","route_long_name":"Antioch to SF Int'l Airport SFO/Millbrae","route_type":1,"route_url":"https://www.bart.gov/schedules/bylineresults?route=1","route_color":"#FFFF33","route_text_color":"#000000"}],"agency_name":"Bay Area Rapid Transit"},"geometry":{"type":"Point","coordinates":[-122.183717,37.878503]}},{"type":"Feature","properties":{"stop_id":"C30-1","stop_code":"903301","stop_name":"Lafayette","zone_id":"LAFY","location_type":0,"parent_station":"LAFY","platform_code":"1","routes":[{"route_id":"2","route_short_name":"Yellow-N","route_long_name":"Millbrae/SF Int'l SFO to Antioch","route_type":1,"route_url":"https://www.bart.gov/schedules/bylineresults?route=2","route_color":"#FFFF33","route_text_color":"#000000"}],"agency_name":"Bay Area Rapid Transit"},"geometry":{"type":"Point","coordinates":[-122.124621,37.893155]}},{"type":"Feature","properties":{"stop_id":"C30-2","stop_code":"903302","stop_name":"Lafayette","zone_id":"LAFY","location_type":0,"parent_station":"LAFY","platform_code":"2","routes":[{"route_id":"1","route_short_name":"Yellow-S","route_long_name":"Antioch to SF Int'l Airport SFO/Millbrae","route_type":1,"route_url":"https://www.bart.gov/schedules/bylineresults?route=1","route_color":"#FFFF33","route_text_color":"#000000"}],"agency_name":"Bay Area Rapid Transit"},"geometry":{"type":"Point","coordinates":[-122.124644,37.89322]}},{"type":"Feature","properties":{"stop_id":"C40-1","stop_code":"903401","stop_name":"Walnut Creek","zone_id":"WCRK","location_type":0,"parent_station":"WCRK","platform_code":"1","routes":[{"route_id":"2","route_short_name":"Yellow-N","route_long_name":"Millbrae/SF Int'l SFO to Antioch","route_type":1,"route_url":"https://www.bart.gov/schedules/bylineresults?route=2","route_color":"#FFFF33","route_text_color":"#000000"}],"agency_name":"Bay Area Rapid Transit"},"geometry":{"type":"Point","coordinates":[-122.067302,37.90578]}},{"type":"Feature","properties":{"stop_id":"C40-2","stop_code":"903402","stop_name":"Walnut Creek","zone_id":"WCRK","location_type":0,"parent_station":"WCRK","platform_code":"2","routes":[{"route_id":"1","route_short_name":"Yellow-S","route_long_name":"Antioch to SF Int'l Airport SFO/Millbrae","route_type":1,"route_url":"https://www.bart.gov/schedules/bylineresults?route=1","route_color":"#FFFF33","route_text_color":"#000000"}],"agency_name":"Bay Area Rapid Transit"},"geometry":{"type":"Point","coordinates":[-122.067379,37.905812]}},{"type":"Feature","properties":{"stop_id":"C50-1","stop_code":"903501","stop_name":"Pleasant Hill / Contra Costa Centre","zone_id":"PHIL","location_type":0,"parent_station":"PHIL","platform_code":"1","routes":[{"route_id":"2","route_short_name":"Yellow-N","route_long_name":"Millbrae/SF Int'l SFO to Antioch","route_type":1,"route_url":"https://www.bart.gov/schedules/bylineresults?route=2","route_color":"#FFFF33","route_text_color":"#000000"}],"agency_name":"Bay Area Rapid Transit"},"geometry":{"type":"Point","coordinates":[-122.055954,37.928414]}},{"type":"Feature","properties":{"stop_id":"C50-2","stop_code":"903502","stop_name":"Pleasant Hill / Contra Costa Centre","zone_id":"PHIL","location_type":0,"parent_station":"PHIL","platform_code":"2","routes":[{"route_id":"1","route_short_name":"Yellow-S","route_long_name":"Antioch to SF Int'l Airport SFO/Millbrae","route_type":1,"route_url":"https://www.bart.gov/schedules/bylineresults?route=1","route_color":"#FFFF33","route_text_color":"#000000"}],"agency_name":"Bay Area Rapid Transit"},"geometry":{"type":"Point","coordinates":[-122.056015,37.928463]}},{"type":"Feature","properties":{"stop_id":"C60-1","stop_code":"903601","stop_name":"Concord","zone_id":"CONC","location_type":0,"parent_station":"CONC","platform_code":"1","routes":[{"route_id":"2","route_short_name":"Yellow-N","route_long_name":"Millbrae/SF Int'l SFO to Antioch","route_type":1,"route_url":"https://www.bart.gov/schedules/bylineresults?route=2","route_color":"#FFFF33","route_text_color":"#000000"}],"agency_name":"Bay Area Rapid Transit"},"geometry":{"type":"Point","coordinates":[-122.029046,37.973751]}},{"type":"Feature","properties":{"stop_id":"C60-2","stop_code":"903602","stop_name":"Concord","zone_id":"CONC","location_type":0,"parent_station":"CONC","platform_code":"2","routes":[{"route_id":"1","route_short_name":"Yellow-S","route_long_name":"Antioch to SF Int'l Airport SFO/Millbrae","route_type":1,"route_url":"https://www.bart.gov/schedules/bylineresults?route=1","route_color":"#FFFF33","route_text_color":"#000000"}],"agency_name":"Bay Area Rapid Transit"},"geometry":{"type":"Point","coordinates":[-122.029126,37.973773]}},{"type":"Feature","properties":{"stop_id":"C70-1","stop_code":"903701","stop_name":"North Concord / Martinez","zone_id":"NCON","location_type":0,"parent_station":"NCON","platform_code":"1","routes":[{"route_id":"2","route_short_name":"Yellow-N","route_long_name":"Millbrae/SF Int'l SFO to Antioch","route_type":1,"route_url":"https://www.bart.gov/schedules/bylineresults?route=2","route_color":"#FFFF33","route_text_color":"#000000"}],"agency_name":"Bay Area Rapid Transit"},"geometry":{"type":"Point","coordinates":[-122.02449,38.003369]}},{"type":"Feature","properties":{"stop_id":"C70-2","stop_code":"903702","stop_name":"North Concord / Martinez","zone_id":"NCON","location_type":0,"parent_station":"NCON","platform_code":"2","routes":[{"route_id":"1","route_short_name":"Yellow-S","route_long_name":"Antioch to SF Int'l Airport SFO/Millbrae","route_type":1,"route_url":"https://www.bart.gov/schedules/bylineresults?route=1","route_color":"#FFFF33","route_text_color":"#000000"}],"agency_name":"Bay Area Rapid Transit"},"geometry":{"type":"Point","coordinates":[-122.024561,38.003407]}},{"type":"Feature","properties":{"stop_id":"C80-1","stop_code":"903801","stop_name":"Pittsburg / Bay Point","zone_id":"PITT","location_type":0,"parent_station":"PITT","platform_code":"1","routes":[{"route_id":"2","route_short_name":"Yellow-N","route_long_name":"Millbrae/SF Int'l SFO to Antioch","route_type":1,"route_url":"https://www.bart.gov/schedules/bylineresults?route=2","route_color":"#FFFF33","route_text_color":"#000000"}],"agency_name":"Bay Area Rapid Transit"},"geometry":{"type":"Point","coordinates":[-121.944249,38.018881]}},{"type":"Feature","properties":{"stop_id":"C80-2","stop_code":"903802","stop_name":"Pittsburg / Bay Point","zone_id":"PITT","location_type":0,"parent_station":"PITT","platform_code":"2","routes":[{"route_id":"1","route_short_name":"Yellow-S","route_long_name":"Antioch to SF Int'l Airport SFO/Millbrae","route_type":1,"route_url":"https://www.bart.gov/schedules/bylineresults?route=1","route_color":"#FFFF33","route_text_color":"#000000"}],"agency_name":"Bay Area Rapid Transit"},"geometry":{"type":"Point","coordinates":[-121.944248,38.01895]}},{"type":"Feature","properties":{"stop_id":"E20-1","stop_code":"908201","stop_name":"Pittsburg Center","zone_id":"PCTR","location_type":0,"parent_station":"PCTR","platform_code":"1","routes":[{"route_id":"2","route_short_name":"Yellow-N","route_long_name":"Millbrae/SF Int'l SFO to Antioch","route_type":1,"route_url":"https://www.bart.gov/schedules/bylineresults?route=2","route_color":"#FFFF33","route_text_color":"#000000"}],"agency_name":"Bay Area Rapid Transit"},"geometry":{"type":"Point","coordinates":[-121.889039,38.016805]}},{"type":"Feature","properties":{"stop_id":"E20-2","stop_code":"908202","stop_name":"Pittsburg Center","zone_id":"PCTR","location_type":0,"parent_station":"PCTR","platform_code":"2","routes":[{"route_id":"1","route_short_name":"Yellow-S","route_long_name":"Antioch to SF Int'l Airport SFO/Millbrae","route_type":1,"route_url":"https://www.bart.gov/schedules/bylineresults?route=1","route_color":"#FFFF33","route_text_color":"#000000"}],"agency_name":"Bay Area Rapid Transit"},"geometry":{"type":"Point","coordinates":[-121.889011,38.016873]}},{"type":"Feature","properties":{"stop_id":"E30-2","stop_code":"908302","stop_name":"Antioch","zone_id":"ANTC","location_type":0,"parent_station":"ANTC","platform_code":"2","routes":[{"route_id":"1","route_short_name":"Yellow-S","route_long_name":"Antioch to SF Int'l Airport SFO/Millbrae","route_type":1,"route_url":"https://www.bart.gov/schedules/bylineresults?route=1","route_color":"#FFFF33","route_text_color":"#000000"},{"route_id":"2","route_short_name":"Yellow-N","route_long_name":"Millbrae/SF Int'l SFO to Antioch","route_type":1,"route_url":"https://www.bart.gov/schedules/bylineresults?route=2","route_color":"#FFFF33","route_text_color":"#000000"}],"agency_name":"Bay Area Rapid Transit"},"geometry":{"type":"Point","coordinates":[-121.780353,37.995415]}},{"type":"Feature","properties":{"stop_id":"H40","stop_code":"907401","stop_name":"Oakland International Airport Station","zone_id":"OAKL","location_type":0,"parent_station":"OAKL","platform_code":"1","routes":[{"route_id":"19","route_short_name":"Grey-N","route_long_name":"Oakland Int'l Airport OAK to Coliseum","route_type":1,"route_url":"https://www.bart.gov/schedules/bylineresults?route=19","route_color":"#B0BEC7","route_text_color":"#000000"},{"route_id":"20","route_short_name":"Grey-S","route_long_name":"Coliseum to Oakland Int'l Airport OAK","route_type":1,"route_url":"https://www.bart.gov/schedules/bylineresults?route=20","route_color":"#B0BEC7","route_text_color":"#000000"}],"agency_name":"Bay Area Rapid Transit"},"geometry":{"type":"Point","coordinates":[-122.212237,37.713256]}},{"type":"Feature","properties":{"stop_id":"K10-1","stop_code":"900101","stop_name":"12th Street / Oakland City Center","zone_id":"12TH","location_type":0,"parent_station":"12TH","platform_code":"1","routes":[{"route_id":"3","route_short_name":"Orange-N","route_long_name":"Berryessa/North San Jose to Richmond","route_type":1,"route_url":"https://www.bart.gov/schedules/bylineresults?route=3","route_color":"#FF9933","route_text_color":"#000000"},{"route_id":"8","route_short_name":"Red-N","route_long_name":"Millbrae/SF Int'l Airport SFO to Richmond","route_type":1,"route_url":"https://www.bart.gov/schedules/bylineresults?route=8","route_color":"#FF0000","route_text_color":"#FFFFFF"}],"agency_name":"Bay Area Rapid Transit"},"geometry":{"type":"Point","coordinates":[-122.271596,37.803463]}},{"type":"Feature","properties":{"stop_id":"K10-2","stop_code":"900102","stop_name":"12th Street / Oakland City Center","zone_id":"12TH","location_type":0,"parent_station":"12TH","platform_code":"2","routes":[{"route_id":"1","route_short_name":"Yellow-S","route_long_name":"Antioch to SF Int'l Airport SFO/Millbrae","route_type":1,"route_url":"https://www.bart.gov/schedules/bylineresults?route=1","route_color":"#FFFF33","route_text_color":"#000000"},{"route_id":"4","route_short_name":"Orange-S","route_long_name":"Richmond to Berryessa/North San Jose","route_type":1,"route_url":"https://www.bart.gov/schedules/bylineresults?route=4","route_color":"#FF9933","route_text_color":"#000000"},{"route_id":"7","route_short_name":"Red-S","route_long_name":"Richmond to SF Int'l Airport SFO/Millbrae","route_type":1,"route_url":"https://www.bart.gov/schedules/bylineresults?route=7","route_color":"#FF0000","route_text_color":"#FFFFFF"}],"agency_name":"Bay Area Rapid Transit"},"geometry":{"type":"Point","coordinates":[-122.271589,37.803471]}},{"type":"Feature","properties":{"stop_id":"K10-3","stop_code":"900103","stop_name":"12th Street / Oakland City Center","zone_id":"12TH","location_type":0,"parent_station":"12TH","platform_code":"3","routes":[{"route_id":"2","route_short_name":"Yellow-N","route_long_name":"Millbrae/SF Int'l SFO to Antioch","route_type":1,"route_url":"https://www.bart.gov/schedules/bylineresults?route=2","route_color":"#FFFF33","route_text_color":"#000000"}],"agency_name":"Bay Area Rapid Transit"},"geometry":{"type":"Point","coordinates":[-122.271694,37.803508]}},{"type":"Feature","properties":{"stop_id":"K20-1","stop_code":"900201","stop_name":"19th Street Oakland","zone_id":"19TH","location_type":0,"parent_station":"19TH","platform_code":"1","routes":[{"route_id":"3","route_short_name":"Orange-N","route_long_name":"Berryessa/North San Jose to Richmond","route_type":1,"route_url":"https://www.bart.gov/schedules/bylineresults?route=3","route_color":"#FF9933","route_text_color":"#000000"},{"route_id":"8","route_short_name":"Red-N","route_long_name":"Millbrae/SF Int'l Airport SFO to Richmond","route_type":1,"route_url":"https://www.bart.gov/schedules/bylineresults?route=8","route_color":"#FF0000","route_text_color":"#FFFFFF"}],"agency_name":"Bay Area Rapid Transit"},"geometry":{"type":"Point","coordinates":[-122.26872,37.808065]}},{"type":"Feature","properties":{"stop_id":"K20-2","stop_code":"900202","stop_name":"19th Street Oakland","zone_id":"19TH","location_type":0,"parent_station":"19TH","platform_code":"2","routes":[{"route_id":"1","route_short_name":"Yellow-S","route_long_name":"Antioch to SF Int'l Airport SFO/Millbrae","route_type":1,"route_url":"https://www.bart.gov/schedules/bylineresults?route=1","route_color":"#FFFF33","route_text_color":"#000000"},{"route_id":"4","route_short_name":"Orange-S","route_long_name":"Richmond to Berryessa/North San Jose","route_type":1,"route_url":"https://www.bart.gov/schedules/bylineresults?route=4","route_color":"#FF9933","route_text_color":"#000000"},{"route_id":"7","route_short_name":"Red-S","route_long_name":"Richmond to SF Int'l Airport SFO/Millbrae","route_type":1,"route_url":"https://www.bart.gov/schedules/bylineresults?route=7","route_color":"#FF0000","route_text_color":"#FFFFFF"}],"agency_name":"Bay Area Rapid Transit"},"geometry":{"type":"Point","coordinates":[-122.268722,37.80806]}},{"type":"Feature","properties":{"stop_id":"K20-3","stop_code":"900203","stop_name":"19th Street Oakland","zone_id":"19TH","location_type":0,"parent_station":"19TH","platform_code":"3","routes":[{"route_id":"2","route_short_name":"Yellow-N","route_long_name":"Millbrae/SF Int'l SFO to Antioch","route_type":1,"route_url":"https://www.bart.gov/schedules/bylineresults?route=2","route_color":"#FFFF33","route_text_color":"#000000"}],"agency_name":"Bay Area Rapid Transit"},"geometry":{"type":"Point","coordinates":[-122.268821,37.808105]}},{"type":"Feature","properties":{"stop_id":"K30-1","stop_code":"900301","stop_name":"MacArthur","zone_id":"MCAR","location_type":0,"parent_station":"MCAR","platform_code":"1","routes":[{"route_id":"3","route_short_name":"Orange-N","route_long_name":"Berryessa/North San Jose to Richmond","route_type":1,"route_url":"https://www.bart.gov/schedules/bylineresults?route=3","route_color":"#FF9933","route_text_color":"#000000"},{"route_id":"8","route_short_name":"Red-N","route_long_name":"Millbrae/SF Int'l Airport SFO to Richmond","route_type":1,"route_url":"https://www.bart.gov/schedules/bylineresults?route=8","route_color":"#FF0000","route_text_color":"#FFFFFF"}],"agency_name":"Bay Area Rapid Transit"},"geometry":{"type":"Point","coordinates":[-122.266978,37.82879]}},{"type":"Feature","properties":{"stop_id":"K30-2","stop_code":"900302","stop_name":"MacArthur","zone_id":"MCAR","location_type":0,"parent_station":"MCAR","platform_code":"2","routes":[{"route_id":"4","route_short_name":"Orange-S","route_long_name":"Richmond to Berryessa/North San Jose","route_type":1,"route_url":"https://www.bart.gov/schedules/bylineresults?route=4","route_color":"#FF9933","route_text_color":"#000000"},{"route_id":"7","route_short_name":"Red-S","route_long_name":"Richmond to SF Int'l Airport SFO/Millbrae","route_type":1,"route_url":"https://www.bart.gov/schedules/bylineresults?route=7","route_color":"#FF0000","route_text_color":"#FFFFFF"}],"agency_name":"Bay Area Rapid Transit"},"geometry":{"type":"Point","coordinates":[-122.267259,37.828827]}},{"type":"Feature","properties":{"stop_id":"K30-3","stop_code":"900303","stop_name":"MacArthur","zone_id":"MCAR","location_type":0,"parent_station":"MCAR","platform_code":"3","routes":[{"route_id":"2","route_short_name":"Yellow-N","route_long_name":"Millbrae/SF Int'l SFO to Antioch","route_type":1,"route_url":"https://www.bart.gov/schedules/bylineresults?route=2","route_color":"#FFFF33","route_text_color":"#000000"}],"agency_name":"Bay Area Rapid Transit"},"geometry":{"type":"Point","coordinates":[-122.267076,37.828801]}},{"type":"Feature","properties":{"stop_id":"K30-4","stop_code":"900304","stop_name":"MacArthur","zone_id":"MCAR","location_type":0,"parent_station":"MCAR","platform_code":"4","routes":[{"route_id":"1","route_short_name":"Yellow-S","route_long_name":"Antioch to SF Int'l Airport SFO/Millbrae","route_type":1,"route_url":"https://www.bart.gov/schedules/bylineresults?route=1","route_color":"#FFFF33","route_text_color":"#000000"}],"agency_name":"Bay Area Rapid Transit"},"geometry":{"type":"Point","coordinates":[-122.267163,37.828814]}},{"type":"Feature","properties":{"stop_id":"L10-1","stop_code":"905101","stop_name":"Castro Valley","zone_id":"CAST","location_type":0,"parent_station":"CAST","platform_code":"1","routes":[{"route_id":"12","route_short_name":"Blue-N","route_long_name":"Daly City to Dublin/Pleasanton","route_type":1,"route_url":"https://www.bart.gov/schedules/bylineresults?route=12","route_color":"#0099CC","route_text_color":"#FFFFFF"}],"agency_name":"Bay Area Rapid Transit"},"geometry":{"type":"Point","coordinates":[-122.075614,37.690708]}},{"type":"Feature","properties":{"stop_id":"L10-2","stop_code":"905102","stop_name":"Castro Valley","zone_id":"CAST","location_type":0,"parent_station":"CAST","platform_code":"2","routes":[{"route_id":"11","route_short_name":"Blue-S","route_long_name":"Dublin/Pleasanton to Daly City","route_type":1,"route_url":"https://www.bart.gov/schedules/bylineresults?route=11","route_color":"#0099CC","route_text_color":"#FFFFFF"}],"agency_name":"Bay Area Rapid Transit"},"geometry":{"type":"Point","coordinates":[-122.075615,37.690776]}},{"type":"Feature","properties":{"stop_id":"L20-1","stop_code":"905201","stop_name":"West Dublin / Pleasanton","zone_id":"WDUB","location_type":0,"parent_station":"WDUB","platform_code":"1","routes":[{"route_id":"12","route_short_name":"Blue-N","route_long_name":"Daly City to Dublin/Pleasanton","route_type":1,"route_url":"https://www.bart.gov/schedules/bylineresults?route=12","route_color":"#0099CC","route_text_color":"#FFFFFF"}],"agency_name":"Bay Area Rapid Transit"},"geometry":{"type":"Point","coordinates":[-121.92828,37.699693]}},{"type":"Feature","properties":{"stop_id":"L20-2","stop_code":"905202","stop_name":"West Dublin / Pleasanton","zone_id":"WDUB","location_type":0,"parent_station":"WDUB","platform_code":"2","routes":[{"route_id":"11","route_short_name":"Blue-S","route_long_name":"Dublin/Pleasanton to Daly City","route_type":1,"route_url":"https://www.bart.gov/schedules/bylineresults?route=11","route_color":"#0099CC","route_text_color":"#FFFFFF"}],"agency_name":"Bay Area Rapid Transit"},"geometry":{"type":"Point","coordinates":[-121.928301,37.69976]}},{"type":"Feature","properties":{"stop_id":"L30-1","stop_code":"905301","stop_name":"Dublin / Pleasanton","zone_id":"DUBL","location_type":0,"parent_station":"DUBL","platform_code":"1","routes":[{"route_id":"12","route_short_name":"Blue-N","route_long_name":"Daly City to Dublin/Pleasanton","route_type":1,"route_url":"https://www.bart.gov/schedules/bylineresults?route=12","route_color":"#0099CC","route_text_color":"#FFFFFF"}],"agency_name":"Bay Area Rapid Transit"},"geometry":{"type":"Point","coordinates":[-121.899245,37.70161]}},{"type":"Feature","properties":{"stop_id":"L30-2","stop_code":"905302","stop_name":"Dublin / Pleasanton","zone_id":"DUBL","location_type":0,"parent_station":"DUBL","platform_code":"2","routes":[{"route_id":"11","route_short_name":"Blue-S","route_long_name":"Dublin/Pleasanton to Daly City","route_type":1,"route_url":"https://www.bart.gov/schedules/bylineresults?route=11","route_color":"#0099CC","route_text_color":"#FFFFFF"},{"route_id":"12","route_short_name":"Blue-N","route_long_name":"Daly City to Dublin/Pleasanton","route_type":1,"route_url":"https://www.bart.gov/schedules/bylineresults?route=12","route_color":"#0099CC","route_text_color":"#FFFFFF"}],"agency_name":"Bay Area Rapid Transit"},"geometry":{"type":"Point","coordinates":[-121.899242,37.701692]}},{"type":"Feature","properties":{"stop_id":"M10-1","stop_code":"901101","stop_name":"West Oakland","zone_id":"WOAK","location_type":0,"parent_station":"WOAK","platform_code":"1","routes":[{"route_id":"1","route_short_name":"Yellow-S","route_long_name":"Antioch to SF Int'l Airport SFO/Millbrae","route_type":1,"route_url":"https://www.bart.gov/schedules/bylineresults?route=1","route_color":"#FFFF33","route_text_color":"#000000"},{"route_id":"11","route_short_name":"Blue-S","route_long_name":"Dublin/Pleasanton to Daly City","route_type":1,"route_url":"https://www.bart.gov/schedules/bylineresults?route=11","route_color":"#0099CC","route_text_color":"#FFFFFF"},{"route_id":"5","route_short_name":"Green-S","route_long_name":"Berryessa/North San Jose to Daly City","route_type":1,"route_url":"https://www.bart.gov/schedules/bylineresults?route=5","route_color":"#339933","route_text_color":"#FFFFFF"},{"route_id":"7","route_short_name":"Red-S","route_long_name":"Richmond to SF Int'l Airport SFO/Millbrae","route_type":1,"route_url":"https://www.bart.gov/schedules/bylineresults?route=7","route_color":"#FF0000","route_text_color":"#FFFFFF"}],"agency_name":"Bay Area Rapid Transit"},"geometry":{"type":"Point","coordinates":[-122.295144,37.804923]}},{"type":"Feature","properties":{"stop_id":"M10-2","stop_code":"901102","stop_name":"West Oakland","zone_id":"WOAK","location_type":0,"parent_station":"WOAK","platform_code":"2","routes":[{"route_id":"12","route_short_name":"Blue-N","route_long_name":"Daly City to Dublin/Pleasanton","route_type":1,"route_url":"https://www.bart.gov/schedules/bylineresults?route=12","route_color":"#0099CC","route_text_color":"#FFFFFF"},{"route_id":"2","route_short_name":"Yellow-N","route_long_name":"Millbrae/SF Int'l SFO to Antioch","route_type":1,"route_url":"https://www.bart.gov/schedules/bylineresults?route=2","route_color":"#FFFF33","route_text_color":"#000000"},{"route_id":"6","route_short_name":"Green-N","route_long_name":"Daly City to Berryessa/North San Jose","route_type":1,"route_url":"https://www.bart.gov/schedules/bylineresults?route=6","route_color":"#339933","route_text_color":"#FFFFFF"},{"route_id":"8","route_short_name":"Red-N","route_long_name":"Millbrae/SF Int'l Airport SFO to Richmond","route_type":1,"route_url":"https://www.bart.gov/schedules/bylineresults?route=8","route_color":"#FF0000","route_text_color":"#FFFFFF"}],"agency_name":"Bay Area Rapid Transit"},"geometry":{"type":"Point","coordinates":[-122.295185,37.804862]}},{"type":"Feature","properties":{"stop_id":"M16-1","stop_code":"901161","stop_name":"Embarcadero","zone_id":"EMBR","location_type":0,"parent_station":"EMBR","platform_code":"1","routes":[{"route_id":"1","route_short_name":"Yellow-S","route_long_name":"Antioch to SF Int'l Airport SFO/Millbrae","route_type":1,"route_url":"https://www.bart.gov/schedules/bylineresults?route=1","route_color":"#FFFF33","route_text_color":"#000000"},{"route_id":"11","route_short_name":"Blue-S","route_long_name":"Dublin/Pleasanton to Daly City","route_type":1,"route_url":"https://www.bart.gov/schedules/bylineresults?route=11","route_color":"#0099CC","route_text_color":"#FFFFFF"},{"route_id":"5","route_short_name":"Green-S","route_long_name":"Berryessa/North San Jose to Daly City","route_type":1,"route_url":"https://www.bart.gov/schedules/bylineresults?route=5","route_color":"#339933","route_text_color":"#FFFFFF"},{"route_id":"7","route_short_name":"Red-S","route_long_name":"Richmond to SF Int'l Airport SFO/Millbrae","route_type":1,"route_url":"https://www.bart.gov/schedules/bylineresults?route=7","route_color":"#FF0000","route_text_color":"#FFFFFF"}],"agency_name":"Bay Area Rapid Transit"},"geometry":{"type":"Point","coordinates":[-122.39708,37.792789]}},{"type":"Feature","properties":{"stop_id":"M16-2","stop_code":"901162","stop_name":"Embarcadero","zone_id":"EMBR","location_type":0,"parent_station":"EMBR","platform_code":"2","routes":[{"route_id":"12","route_short_name":"Blue-N","route_long_name":"Daly City to Dublin/Pleasanton","route_type":1,"route_url":"https://www.bart.gov/schedules/bylineresults?route=12","route_color":"#0099CC","route_text_color":"#FFFFFF"},{"route_id":"2","route_short_name":"Yellow-N","route_long_name":"Millbrae/SF Int'l SFO to Antioch","route_type":1,"route_url":"https://www.bart.gov/schedules/bylineresults?route=2","route_color":"#FFFF33","route_text_color":"#000000"},{"route_id":"6","route_short_name":"Green-N","route_long_name":"Daly City to Berryessa/North San Jose","route_type":1,"route_url":"https://www.bart.gov/schedules/bylineresults?route=6","route_color":"#339933","route_text_color":"#FFFFFF"},{"route_id":"8","route_short_name":"Red-N","route_long_name":"Millbrae/SF Int'l Airport SFO to Richmond","route_type":1,"route_url":"https://www.bart.gov/schedules/bylineresults?route=8","route_color":"#FF0000","route_text_color":"#FFFFFF"}],"agency_name":"Bay Area Rapid Transit"},"geometry":{"type":"Point","coordinates":[-122.397019,37.792741]}},{"type":"Feature","properties":{"stop_id":"M20-1","stop_code":"901201","stop_name":"Montgomery Street","zone_id":"MONT","location_type":0,"parent_station":"MONT","platform_code":"1","routes":[{"route_id":"1","route_short_name":"Yellow-S","route_long_name":"Antioch to SF Int'l Airport SFO/Millbrae","route_type":1,"route_url":"https://www.bart.gov/schedules/bylineresults?route=1","route_color":"#FFFF33","route_text_color":"#000000"},{"route_id":"11","route_short_name":"Blue-S","route_long_name":"Dublin/Pleasanton to Daly City","route_type":1,"route_url":"https://www.bart.gov/schedules/bylineresults?route=11","route_color":"#0099CC","route_text_color":"#FFFFFF"},{"route_id":"5","route_short_name":"Green-S","route_long_name":"Berryessa/North San Jose to Daly City","route_type":1,"route_url":"https://www.bart.gov/schedules/bylineresults?route=5","route_color":"#339933","route_text_color":"#FFFFFF"},{"route_id":"7","route_short_name":"Red-S","route_long_name":"Richmond to SF Int'l Airport SFO/Millbrae","route_type":1,"route_url":"https://www.bart.gov/schedules/bylineresults?route=7","route_color":"#FF0000","route_text_color":"#FFFFFF"}],"agency_name":"Bay Area Rapid Transit"},"geometry":{"type":"Point","coordinates":[-122.401642,37.789213]}},{"type":"Feature","properties":{"stop_id":"M20-2","stop_code":"901202","stop_name":"Montgomery Street","zone_id":"MONT","location_type":0,"parent_station":"MONT","platform_code":"2","routes":[{"route_id":"12","route_short_name":"Blue-N","route_long_name":"Daly City to Dublin/Pleasanton","route_type":1,"route_url":"https://www.bart.gov/schedules/bylineresults?route=12","route_color":"#0099CC","route_text_color":"#FFFFFF"},{"route_id":"2","route_short_name":"Yellow-N","route_long_name":"Millbrae/SF Int'l SFO to Antioch","route_type":1,"route_url":"https://www.bart.gov/schedules/bylineresults?route=2","route_color":"#FFFF33","route_text_color":"#000000"},{"route_id":"6","route_short_name":"Green-N","route_long_name":"Daly City to Berryessa/North San Jose","route_type":1,"route_url":"https://www.bart.gov/schedules/bylineresults?route=6","route_color":"#339933","route_text_color":"#FFFFFF"},{"route_id":"8","route_short_name":"Red-N","route_long_name":"Millbrae/SF Int'l Airport SFO to Richmond","route_type":1,"route_url":"https://www.bart.gov/schedules/bylineresults?route=8","route_color":"#FF0000","route_text_color":"#FFFFFF"}],"agency_name":"Bay Area Rapid Transit"},"geometry":{"type":"Point","coordinates":[-122.401558,37.789143]}},{"type":"Feature","properties":{"stop_id":"M30-1","stop_code":"901301","stop_name":"Powell Street","zone_id":"POWL","location_type":0,"parent_station":"POWL","platform_code":"1","routes":[{"route_id":"1","route_short_name":"Yellow-S","route_long_name":"Antioch to SF Int'l Airport SFO/Millbrae","route_type":1,"route_url":"https://www.bart.gov/schedules/bylineresults?route=1","route_color":"#FFFF33","route_text_color":"#000000"},{"route_id":"11","route_short_name":"Blue-S","route_long_name":"Dublin/Pleasanton to Daly City","route_type":1,"route_url":"https://www.bart.gov/schedules/bylineresults?route=11","route_color":"#0099CC","route_text_color":"#FFFFFF"},{"route_id":"5","route_short_name":"Green-S","route_long_name":"Berryessa/North San Jose to Daly City","route_type":1,"route_url":"https://www.bart.gov/schedules/bylineresults?route=5","route_color":"#339933","route_text_color":"#FFFFFF"},{"route_id":"7","route_short_name":"Red-S","route_long_name":"Richmond to SF Int'l Airport SFO/Millbrae","route_type":1,"route_url":"https://www.bart.gov/schedules/bylineresults?route=7","route_color":"#FF0000","route_text_color":"#FFFFFF"}],"agency_name":"Bay Area Rapid Transit"},"geometry":{"type":"Point","coordinates":[-122.407387,37.784645]}},{"type":"Feature","properties":{"stop_id":"M30-2","stop_code":"901302","stop_name":"Powell Street","zone_id":"POWL","location_type":0,"parent_station":"POWL","platform_code":"2","routes":[{"route_id":"12","route_short_name":"Blue-N","route_long_name":"Daly City to Dublin/Pleasanton","route_type":1,"route_url":"https://www.bart.gov/schedules/bylineresults?route=12","route_color":"#0099CC","route_text_color":"#FFFFFF"},{"route_id":"2","route_short_name":"Yellow-N","route_long_name":"Millbrae/SF Int'l SFO to Antioch","route_type":1,"route_url":"https://www.bart.gov/schedules/bylineresults?route=2","route_color":"#FFFF33","route_text_color":"#000000"},{"route_id":"6","route_short_name":"Green-N","route_long_name":"Daly City to Berryessa/North San Jose","route_type":1,"route_url":"https://www.bart.gov/schedules/bylineresults?route=6","route_color":"#339933","route_text_color":"#FFFFFF"},{"route_id":"8","route_short_name":"Red-N","route_long_name":"Millbrae/SF Int'l Airport SFO to Richmond","route_type":1,"route_url":"https://www.bart.gov/schedules/bylineresults?route=8","route_color":"#FF0000","route_text_color":"#FFFFFF"}],"agency_name":"Bay Area Rapid Transit"},"geometry":{"type":"Point","coordinates":[-122.407302,37.784576]}},{"type":"Feature","properties":{"stop_id":"M40-1","stop_code":"901401","stop_name":"Civic Center / UN Plaza","zone_id":"CIVC","location_type":0,"parent_station":"CIVC","platform_code":"1","routes":[{"route_id":"1","route_short_name":"Yellow-S","route_long_name":"Antioch to SF Int'l Airport SFO/Millbrae","route_type":1,"route_url":"https://www.bart.gov/schedules/bylineresults?route=1","route_color":"#FFFF33","route_text_color":"#000000"},{"route_id":"11","route_short_name":"Blue-S","route_long_name":"Dublin/Pleasanton to Daly City","route_type":1,"route_url":"https://www.bart.gov/schedules/bylineresults?route=11","route_color":"#0099CC","route_text_color":"#FFFFFF"},{"route_id":"5","route_short_name":"Green-S","route_long_name":"Berryessa/North San Jose to Daly City","route_type":1,"route_url":"https://www.bart.gov/schedules/bylineresults?route=5","route_color":"#339933","route_text_color":"#FFFFFF"},{"route_id":"7","route_short_name":"Red-S","route_long_name":"Richmond to SF Int'l Airport SFO/Millbrae","route_type":1,"route_url":"https://www.bart.gov/schedules/bylineresults?route=7","route_color":"#FF0000","route_text_color":"#FFFFFF"}],"agency_name":"Bay Area Rapid Transit"},"geometry":{"type":"Point","coordinates":[-122.413879,37.77945]}},{"type":"Feature","properties":{"stop_id":"M40-2","stop_code":"901402","stop_name":"Civic Center / UN Plaza","zone_id":"CIVC","location_type":0,"parent_station":"CIVC","platform_code":"2","routes":[{"route_id":"12","route_short_name":"Blue-N","route_long_name":"Daly City to Dublin/Pleasanton","route_type":1,"route_url":"https://www.bart.gov/schedules/bylineresults?route=12","route_color":"#0099CC","route_text_color":"#FFFFFF"},{"route_id":"2","route_short_name":"Yellow-N","route_long_name":"Millbrae/SF Int'l SFO to Antioch","route_type":1,"route_url":"https://www.bart.gov/schedules/bylineresults?route=2","route_color":"#FFFF33","route_text_color":"#000000"},{"route_id":"6","route_short_name":"Green-N","route_long_name":"Daly City to Berryessa/North San Jose","route_type":1,"route_url":"https://www.bart.gov/schedules/bylineresults?route=6","route_color":"#339933","route_text_color":"#FFFFFF"},{"route_id":"8","route_short_name":"Red-N","route_long_name":"Millbrae/SF Int'l Airport SFO to Richmond","route_type":1,"route_url":"https://www.bart.gov/schedules/bylineresults?route=8","route_color":"#FF0000","route_text_color":"#FFFFFF"}],"agency_name":"Bay Area Rapid Transit"},"geometry":{"type":"Point","coordinates":[-122.413804,37.77938]}},{"type":"Feature","properties":{"stop_id":"M50-1","stop_code":"901501","stop_name":"16th Street / Mission","zone_id":"16TH","location_type":0,"parent_station":"16TH","platform_code":"1","routes":[{"route_id":"1","route_short_name":"Yellow-S","route_long_name":"Antioch to SF Int'l Airport SFO/Millbrae","route_type":1,"route_url":"https://www.bart.gov/schedules/bylineresults?route=1","route_color":"#FFFF33","route_text_color":"#000000"},{"route_id":"11","route_short_name":"Blue-S","route_long_name":"Dublin/Pleasanton to Daly City","route_type":1,"route_url":"https://www.bart.gov/schedules/bylineresults?route=11","route_color":"#0099CC","route_text_color":"#FFFFFF"},{"route_id":"5","route_short_name":"Green-S","route_long_name":"Berryessa/North San Jose to Daly City","route_type":1,"route_url":"https://www.bart.gov/schedules/bylineresults?route=5","route_color":"#339933","route_text_color":"#FFFFFF"},{"route_id":"7","route_short_name":"Red-S","route_long_name":"Richmond to SF Int'l Airport SFO/Millbrae","route_type":1,"route_url":"https://www.bart.gov/schedules/bylineresults?route=7","route_color":"#FF0000","route_text_color":"#FFFFFF"}],"agency_name":"Bay Area Rapid Transit"},"geometry":{"type":"Point","coordinates":[-122.419755,37.765176]}},{"type":"Feature","properties":{"stop_id":"M50-2","stop_code":"901502","stop_name":"16th Street / Mission","zone_id":"16TH","location_type":0,"parent_station":"16TH","platform_code":"2","routes":[{"route_id":"12","route_short_name":"Blue-N","route_long_name":"Daly City to Dublin/Pleasanton","route_type":1,"route_url":"https://www.bart.gov/schedules/bylineresults?route=12","route_color":"#0099CC","route_text_color":"#FFFFFF"},{"route_id":"2","route_short_name":"Yellow-N","route_long_name":"Millbrae/SF Int'l SFO to Antioch","route_type":1,"route_url":"https://www.bart.gov/schedules/bylineresults?route=2","route_color":"#FFFF33","route_text_color":"#000000"},{"route_id":"6","route_short_name":"Green-N","route_long_name":"Daly City to Berryessa/North San Jose","route_type":1,"route_url":"https://www.bart.gov/schedules/bylineresults?route=6","route_color":"#339933","route_text_color":"#FFFFFF"},{"route_id":"8","route_short_name":"Red-N","route_long_name":"Millbrae/SF Int'l Airport SFO to Richmond","route_type":1,"route_url":"https://www.bart.gov/schedules/bylineresults?route=8","route_color":"#FF0000","route_text_color":"#FFFFFF"}],"agency_name":"Bay Area Rapid Transit"},"geometry":{"type":"Point","coordinates":[-122.419679,37.76518]}},{"type":"Feature","properties":{"stop_id":"M60-1","stop_code":"901601","stop_name":"24th Street / Mission","zone_id":"24TH","location_type":0,"parent_station":"24TH","platform_code":"1","routes":[{"route_id":"1","route_short_name":"Yellow-S","route_long_name":"Antioch to SF Int'l Airport SFO/Millbrae","route_type":1,"route_url":"https://www.bart.gov/schedules/bylineresults?route=1","route_color":"#FFFF33","route_text_color":"#000000"},{"route_id":"11","route_short_name":"Blue-S","route_long_name":"Dublin/Pleasanton to Daly City","route_type":1,"route_url":"https://www.bart.gov/schedules/bylineresults?route=11","route_color":"#0099CC","route_text_color":"#FFFFFF"},{"route_id":"5","route_short_name":"Green-S","route_long_name":"Berryessa/North San Jose to Daly City","route_type":1,"route_url":"https://www.bart.gov/schedules/bylineresults?route=5","route_color":"#339933","route_text_color":"#FFFFFF"},{"route_id":"7","route_short_name":"Red-S","route_long_name":"Richmond to SF Int'l Airport SFO/Millbrae","route_type":1,"route_url":"https://www.bart.gov/schedules/bylineresults?route=7","route_color":"#FF0000","route_text_color":"#FFFFFF"}],"agency_name":"Bay Area Rapid Transit"},"geometry":{"type":"Point","coordinates":[-122.418518,37.752422]}},{"type":"Feature","properties":{"stop_id":"M60-2","stop_code":"901602","stop_name":"24th Street / Mission","zone_id":"24TH","location_type":0,"parent_station":"24TH","platform_code":"2","routes":[{"route_id":"12","route_short_name":"Blue-N","route_long_name":"Daly City to Dublin/Pleasanton","route_type":1,"route_url":"https://www.bart.gov/schedules/bylineresults?route=12","route_color":"#0099CC","route_text_color":"#FFFFFF"},{"route_id":"2","route_short_name":"Yellow-N","route_long_name":"Millbrae/SF Int'l SFO to Antioch","route_type":1,"route_url":"https://www.bart.gov/schedules/bylineresults?route=2","route_color":"#FFFF33","route_text_color":"#000000"},{"route_id":"6","route_short_name":"Green-N","route_long_name":"Daly City to Berryessa/North San Jose","route_type":1,"route_url":"https://www.bart.gov/schedules/bylineresults?route=6","route_color":"#339933","route_text_color":"#FFFFFF"},{"route_id":"8","route_short_name":"Red-N","route_long_name":"Millbrae/SF Int'l Airport SFO to Richmond","route_type":1,"route_url":"https://www.bart.gov/schedules/bylineresults?route=8","route_color":"#FF0000","route_text_color":"#FFFFFF"}],"agency_name":"Bay Area Rapid Transit"},"geometry":{"type":"Point","coordinates":[-122.418445,37.752426]}},{"type":"Feature","properties":{"stop_id":"M70-1","stop_code":"901701","stop_name":"Glen Park","zone_id":"GLEN","location_type":0,"parent_station":"GLEN","platform_code":"1","routes":[{"route_id":"1","route_short_name":"Yellow-S","route_long_name":"Antioch to SF Int'l Airport SFO/Millbrae","route_type":1,"route_url":"https://www.bart.gov/schedules/bylineresults?route=1","route_color":"#FFFF33","route_text_color":"#000000"},{"route_id":"11","route_short_name":"Blue-S","route_long_name":"Dublin/Pleasanton to Daly City","route_type":1,"route_url":"https://www.bart.gov/schedules/bylineresults?route=11","route_color":"#0099CC","route_text_color":"#FFFFFF"},{"route_id":"5","route_short_name":"Green-S","route_long_name":"Berryessa/North San Jose to Daly City","route_type":1,"route_url":"https://www.bart.gov/schedules/bylineresults?route=5","route_color":"#339933","route_text_color":"#FFFFFF"},{"route_id":"7","route_short_name":"Red-S","route_long_name":"Richmond to SF Int'l Airport SFO/Millbrae","route_type":1,"route_url":"https://www.bart.gov/schedules/bylineresults?route=7","route_color":"#FF0000","route_text_color":"#FFFFFF"}],"agency_name":"Bay Area Rapid Transit"},"geometry":{"type":"Point","coordinates":[-122.433557,37.733269]}},{"type":"Feature","properties":{"stop_id":"M70-2","stop_code":"901702","stop_name":"Glen Park","zone_id":"GLEN","location_type":0,"parent_station":"GLEN","platform_code":"2","routes":[{"route_id":"12","route_short_name":"Blue-N","route_long_name":"Daly City to Dublin/Pleasanton","route_type":1,"route_url":"https://www.bart.gov/schedules/bylineresults?route=12","route_color":"#0099CC","route_text_color":"#FFFFFF"},{"route_id":"2","route_short_name":"Yellow-N","route_long_name":"Millbrae/SF Int'l SFO to Antioch","route_type":1,"route_url":"https://www.bart.gov/schedules/bylineresults?route=2","route_color":"#FFFF33","route_text_color":"#000000"},{"route_id":"6","route_short_name":"Green-N","route_long_name":"Daly City to Berryessa/North San Jose","route_type":1,"route_url":"https://www.bart.gov/schedules/bylineresults?route=6","route_color":"#339933","route_text_color":"#FFFFFF"},{"route_id":"8","route_short_name":"Red-N","route_long_name":"Millbrae/SF Int'l Airport SFO to Richmond","route_type":1,"route_url":"https://www.bart.gov/schedules/bylineresults?route=8","route_color":"#FF0000","route_text_color":"#FFFFFF"}],"agency_name":"Bay Area Rapid Transit"},"geometry":{"type":"Point","coordinates":[-122.433498,37.733212]}},{"type":"Feature","properties":{"stop_id":"M80-1","stop_code":"901801","stop_name":"Balboa Park","zone_id":"BALB","location_type":0,"parent_station":"BALB","platform_code":"1","routes":[{"route_id":"1","route_short_name":"Yellow-S","route_long_name":"Antioch to SF Int'l Airport SFO/Millbrae","route_type":1,"route_url":"https://www.bart.gov/schedules/bylineresults?route=1","route_color":"#FFFF33","route_text_color":"#000000"},{"route_id":"11","route_short_name":"Blue-S","route_long_name":"Dublin/Pleasanton to Daly City","route_type":1,"route_url":"https://www.bart.gov/schedules/bylineresults?route=11","route_color":"#0099CC","route_text_color":"#FFFFFF"},{"route_id":"5","route_short_name":"Green-S","route_long_name":"Berryessa/North San Jose to Daly City","route_type":1,"route_url":"https://www.bart.gov/schedules/bylineresults?route=5","route_color":"#339933","route_text_color":"#FFFFFF"},{"route_id":"7","route_short_name":"Red-S","route_long_name":"Richmond to SF Int'l Airport SFO/Millbrae","route_type":1,"route_url":"https://www.bart.gov/schedules/bylineresults?route=7","route_color":"#FF0000","route_text_color":"#FFFFFF"}],"agency_name":"Bay Area Rapid Transit"},"geometry":{"type":"Point","coordinates":[-122.44751,37.721758]}},{"type":"Feature","properties":{"stop_id":"M80-2","stop_code":"901802","stop_name":"Balboa Park","zone_id":"BALB","location_type":0,"parent_station":"BALB","platform_code":"2","routes":[{"route_id":"12","route_short_name":"Blue-N","route_long_name":"Daly City to Dublin/Pleasanton","route_type":1,"route_url":"https://www.bart.gov/schedules/bylineresults?route=12","route_color":"#0099CC","route_text_color":"#FFFFFF"},{"route_id":"2","route_short_name":"Yellow-N","route_long_name":"Millbrae/SF Int'l SFO to Antioch","route_type":1,"route_url":"https://www.bart.gov/schedules/bylineresults?route=2","route_color":"#FFFF33","route_text_color":"#000000"},{"route_id":"6","route_short_name":"Green-N","route_long_name":"Daly City to Berryessa/North San Jose","route_type":1,"route_url":"https://www.bart.gov/schedules/bylineresults?route=6","route_color":"#339933","route_text_color":"#FFFFFF"},{"route_id":"8","route_short_name":"Red-N","route_long_name":"Millbrae/SF Int'l Airport SFO to Richmond","route_type":1,"route_url":"https://www.bart.gov/schedules/bylineresults?route=8","route_color":"#FF0000","route_text_color":"#FFFFFF"}],"agency_name":"Bay Area Rapid Transit"},"geometry":{"type":"Point","coordinates":[-122.447433,37.721748]}},{"type":"Feature","properties":{"stop_id":"M90-1","stop_code":"901901","stop_name":"Daly City","zone_id":"DALY","location_type":0,"parent_station":"DALY","platform_code":"1","routes":[{"route_id":"11","route_short_name":"Blue-S","route_long_name":"Dublin/Pleasanton to Daly City","route_type":1,"route_url":"https://www.bart.gov/schedules/bylineresults?route=11","route_color":"#0099CC","route_text_color":"#FFFFFF"},{"route_id":"12","route_short_name":"Blue-N","route_long_name":"Daly City to Dublin/Pleasanton","route_type":1,"route_url":"https://www.bart.gov/schedules/bylineresults?route=12","route_color":"#0099CC","route_text_color":"#FFFFFF"},{"route_id":"5","route_short_name":"Green-S","route_long_name":"Berryessa/North San Jose to Daly City","route_type":1,"route_url":"https://www.bart.gov/schedules/bylineresults?route=5","route_color":"#339933","route_text_color":"#FFFFFF"},{"route_id":"6","route_short_name":"Green-N","route_long_name":"Daly City to Berryessa/North San Jose","route_type":1,"route_url":"https://www.bart.gov/schedules/bylineresults?route=6","route_color":"#339933","route_text_color":"#FFFFFF"}],"agency_name":"Bay Area Rapid Transit"},"geometry":{"type":"Point","coordinates":[-122.468922,37.706263]}},{"type":"Feature","properties":{"stop_id":"M90-2","stop_code":"901902","stop_name":"Daly City","zone_id":"DALY","location_type":0,"parent_station":"DALY","platform_code":"2","routes":[{"route_id":"2","route_short_name":"Yellow-N","route_long_name":"Millbrae/SF Int'l SFO to Antioch","route_type":1,"route_url":"https://www.bart.gov/schedules/bylineresults?route=2","route_color":"#FFFF33","route_text_color":"#000000"},{"route_id":"6","route_short_name":"Green-N","route_long_name":"Daly City to Berryessa/North San Jose","route_type":1,"route_url":"https://www.bart.gov/schedules/bylineresults?route=6","route_color":"#339933","route_text_color":"#FFFFFF"},{"route_id":"8","route_short_name":"Red-N","route_long_name":"Millbrae/SF Int'l Airport SFO to Richmond","route_type":1,"route_url":"https://www.bart.gov/schedules/bylineresults?route=8","route_color":"#FF0000","route_text_color":"#FFFFFF"}],"agency_name":"Bay Area Rapid Transit"},"geometry":{"type":"Point","coordinates":[-122.468851,37.706227]}},{"type":"Feature","properties":{"stop_id":"M90-3","stop_code":"901903","stop_name":"Daly City","zone_id":"DALY","location_type":0,"parent_station":"DALY","platform_code":"3","routes":[{"route_id":"1","route_short_name":"Yellow-S","route_long_name":"Antioch to SF Int'l Airport SFO/Millbrae","route_type":1,"route_url":"https://www.bart.gov/schedules/bylineresults?route=1","route_color":"#FFFF33","route_text_color":"#000000"},{"route_id":"11","route_short_name":"Blue-S","route_long_name":"Dublin/Pleasanton to Daly City","route_type":1,"route_url":"https://www.bart.gov/schedules/bylineresults?route=11","route_color":"#0099CC","route_text_color":"#FFFFFF"},{"route_id":"5","route_short_name":"Green-S","route_long_name":"Berryessa/North San Jose to Daly City","route_type":1,"route_url":"https://www.bart.gov/schedules/bylineresults?route=5","route_color":"#339933","route_text_color":"#FFFFFF"},{"route_id":"7","route_short_name":"Red-S","route_long_name":"Richmond to SF Int'l Airport SFO/Millbrae","route_type":1,"route_url":"https://www.bart.gov/schedules/bylineresults?route=7","route_color":"#FF0000","route_text_color":"#FFFFFF"}],"agency_name":"Bay Area Rapid Transit"},"geometry":{"type":"Point","coordinates":[-122.468994,37.706304]}},{"type":"Feature","properties":{"stop_id":"R10-1","stop_code":"904101","stop_name":"Ashby","zone_id":"ASHB","location_type":0,"parent_station":"ASHB","platform_code":"1","routes":[{"route_id":"3","route_short_name":"Orange-N","route_long_name":"Berryessa/North San Jose to Richmond","route_type":1,"route_url":"https://www.bart.gov/schedules/bylineresults?route=3","route_color":"#FF9933","route_text_color":"#000000"},{"route_id":"8","route_short_name":"Red-N","route_long_name":"Millbrae/SF Int'l Airport SFO to Richmond","route_type":1,"route_url":"https://www.bart.gov/schedules/bylineresults?route=8","route_color":"#FF0000","route_text_color":"#FFFFFF"}],"agency_name":"Bay Area Rapid Transit"},"geometry":{"type":"Point","coordinates":[-122.26975,37.853069]}},{"type":"Feature","properties":{"stop_id":"R10-2","stop_code":"904102","stop_name":"Ashby","zone_id":"ASHB","location_type":0,"parent_station":"ASHB","platform_code":"2","routes":[{"route_id":"4","route_short_name":"Orange-S","route_long_name":"Richmond to Berryessa/North San Jose","route_type":1,"route_url":"https://www.bart.gov/schedules/bylineresults?route=4","route_color":"#FF9933","route_text_color":"#000000"},{"route_id":"7","route_short_name":"Red-S","route_long_name":"Richmond to SF Int'l Airport SFO/Millbrae","route_type":1,"route_url":"https://www.bart.gov/schedules/bylineresults?route=7","route_color":"#FF0000","route_text_color":"#FFFFFF"}],"agency_name":"Bay Area Rapid Transit"},"geometry":{"type":"Point","coordinates":[-122.269819,37.853087]}},{"type":"Feature","properties":{"stop_id":"R20-1","stop_code":"904201","stop_name":"Downtown Berkeley","zone_id":"DBRK","location_type":0,"parent_station":"DBRK","platform_code":"1","routes":[{"route_id":"3","route_short_name":"Orange-N","route_long_name":"Berryessa/North San Jose to Richmond","route_type":1,"route_url":"https://www.bart.gov/schedules/bylineresults?route=3","route_color":"#FF9933","route_text_color":"#000000"},{"route_id":"8","route_short_name":"Red-N","route_long_name":"Millbrae/SF Int'l Airport SFO to Richmond","route_type":1,"route_url":"https://www.bart.gov/schedules/bylineresults?route=8","route_color":"#FF0000","route_text_color":"#FFFFFF"}],"agency_name":"Bay Area Rapid Transit"},"geometry":{"type":"Point","coordinates":[-122.268078,37.870117]}},{"type":"Feature","properties":{"stop_id":"R20-2","stop_code":"904202","stop_name":"Downtown Berkeley","zone_id":"DBRK","location_type":0,"parent_station":"DBRK","platform_code":"2","routes":[{"route_id":"4","route_short_name":"Orange-S","route_long_name":"Richmond to Berryessa/North San Jose","route_type":1,"route_url":"https://www.bart.gov/schedules/bylineresults?route=4","route_color":"#FF9933","route_text_color":"#000000"},{"route_id":"7","route_short_name":"Red-S","route_long_name":"Richmond to SF Int'l Airport SFO/Millbrae","route_type":1,"route_url":"https://www.bart.gov/schedules/bylineresults?route=7","route_color":"#FF0000","route_text_color":"#FFFFFF"}],"agency_name":"Bay Area Rapid Transit"},"geometry":{"type":"Point","coordinates":[-122.268166,37.870113]}},{"type":"Feature","properties":{"stop_id":"R30-1","stop_code":"904301","stop_name":"North Berkeley","zone_id":"NBRK","location_type":0,"parent_station":"NBRK","platform_code":"1","routes":[{"route_id":"3","route_short_name":"Orange-N","route_long_name":"Berryessa/North San Jose to Richmond","route_type":1,"route_url":"https://www.bart.gov/schedules/bylineresults?route=3","route_color":"#FF9933","route_text_color":"#000000"},{"route_id":"8","route_short_name":"Red-N","route_long_name":"Millbrae/SF Int'l Airport SFO to Richmond","route_type":1,"route_url":"https://www.bart.gov/schedules/bylineresults?route=8","route_color":"#FF0000","route_text_color":"#FFFFFF"}],"agency_name":"Bay Area Rapid Transit"},"geometry":{"type":"Point","coordinates":[-122.283508,37.874032]}},{"type":"Feature","properties":{"stop_id":"R30-2","stop_code":"904302","stop_name":"North Berkeley","zone_id":"NBRK","location_type":0,"parent_station":"NBRK","platform_code":"2","routes":[{"route_id":"4","route_short_name":"Orange-S","route_long_name":"Richmond to Berryessa/North San Jose","route_type":1,"route_url":"https://www.bart.gov/schedules/bylineresults?route=4","route_color":"#FF9933","route_text_color":"#000000"},{"route_id":"7","route_short_name":"Red-S","route_long_name":"Richmond to SF Int'l Airport SFO/Millbrae","route_type":1,"route_url":"https://www.bart.gov/schedules/bylineresults?route=7","route_color":"#FF0000","route_text_color":"#FFFFFF"}],"agency_name":"Bay Area Rapid Transit"},"geometry":{"type":"Point","coordinates":[-122.283591,37.874]}},{"type":"Feature","properties":{"stop_id":"R40-1","stop_code":"904401","stop_name":"El Cerrito Plaza","zone_id":"PLZA","location_type":0,"parent_station":"PLZA","platform_code":"1","routes":[{"route_id":"3","route_short_name":"Orange-N","route_long_name":"Berryessa/North San Jose to Richmond","route_type":1,"route_url":"https://www.bart.gov/schedules/bylineresults?route=3","route_color":"#FF9933","route_text_color":"#000000"},{"route_id":"8","route_short_name":"Red-N","route_long_name":"Millbrae/SF Int'l Airport SFO to Richmond","route_type":1,"route_url":"https://www.bart.gov/schedules/bylineresults?route=8","route_color":"#FF0000","route_text_color":"#FFFFFF"}],"agency_name":"Bay Area Rapid Transit"},"geometry":{"type":"Point","coordinates":[-122.298895,37.902633]}},{"type":"Feature","properties":{"stop_id":"R40-2","stop_code":"904402","stop_name":"El Cerrito Plaza","zone_id":"PLZA","location_type":0,"parent_station":"PLZA","platform_code":"2","routes":[{"route_id":"4","route_short_name":"Orange-S","route_long_name":"Richmond to Berryessa/North San Jose","route_type":1,"route_url":"https://www.bart.gov/schedules/bylineresults?route=4","route_color":"#FF9933","route_text_color":"#000000"},{"route_id":"7","route_short_name":"Red-S","route_long_name":"Richmond to SF Int'l Airport SFO/Millbrae","route_type":1,"route_url":"https://www.bart.gov/schedules/bylineresults?route=7","route_color":"#FF0000","route_text_color":"#FFFFFF"}],"agency_name":"Bay Area Rapid Transit"},"geometry":{"type":"Point","coordinates":[-122.29897,37.902596]}},{"type":"Feature","properties":{"stop_id":"R50-1","stop_code":"904501","stop_name":"El Cerrito Del Norte","zone_id":"DELN","location_type":0,"parent_station":"DELN","platform_code":"1","routes":[{"route_id":"3","route_short_name":"Orange-N","route_long_name":"Berryessa/North San Jose to Richmond","route_type":1,"route_url":"https://www.bart.gov/schedules/bylineresults?route=3","route_color":"#FF9933","route_text_color":"#000000"},{"route_id":"8","route_short_name":"Red-N","route_long_name":"Millbrae/SF Int'l Airport SFO to Richmond","route_type":1,"route_url":"https://www.bart.gov/schedules/bylineresults?route=8","route_color":"#FF0000","route_text_color":"#FFFFFF"}],"agency_name":"Bay Area Rapid Transit"},"geometry":{"type":"Point","coordinates":[-122.316868,37.925205]}},{"type":"Feature","properties":{"stop_id":"R50-2","stop_code":"904502","stop_name":"El Cerrito Del Norte","zone_id":"DELN","location_type":0,"parent_station":"DELN","platform_code":"2","routes":[{"route_id":"4","route_short_name":"Orange-S","route_long_name":"Richmond to Berryessa/North San Jose","route_type":1,"route_url":"https://www.bart.gov/schedules/bylineresults?route=4","route_color":"#FF9933","route_text_color":"#000000"},{"route_id":"7","route_short_name":"Red-S","route_long_name":"Richmond to SF Int'l Airport SFO/Millbrae","route_type":1,"route_url":"https://www.bart.gov/schedules/bylineresults?route=7","route_color":"#FF0000","route_text_color":"#FFFFFF"}],"agency_name":"Bay Area Rapid Transit"},"geometry":{"type":"Point","coordinates":[-122.316942,37.92517]}},{"type":"Feature","properties":{"stop_id":"R60-1","stop_code":"904601","stop_name":"Richmond","zone_id":"RICH","location_type":0,"parent_station":"RICH","platform_code":"1","routes":[{"route_id":"3","route_short_name":"Orange-N","route_long_name":"Berryessa/North San Jose to Richmond","route_type":1,"route_url":"https://www.bart.gov/schedules/bylineresults?route=3","route_color":"#FF9933","route_text_color":"#000000"},{"route_id":"8","route_short_name":"Red-N","route_long_name":"Millbrae/SF Int'l Airport SFO to Richmond","route_type":1,"route_url":"https://www.bart.gov/schedules/bylineresults?route=8","route_color":"#FF0000","route_text_color":"#FFFFFF"}],"agency_name":"Bay Area Rapid Transit"},"geometry":{"type":"Point","coordinates":[-122.353004,37.936795]}},{"type":"Feature","properties":{"stop_id":"R60-2","stop_code":"904602","stop_name":"Richmond","zone_id":"RICH","location_type":0,"parent_station":"RICH","platform_code":"2","routes":[{"route_id":"4","route_short_name":"Orange-S","route_long_name":"Richmond to Berryessa/North San Jose","route_type":1,"route_url":"https://www.bart.gov/schedules/bylineresults?route=4","route_color":"#FF9933","route_text_color":"#000000"},{"route_id":"7","route_short_name":"Red-S","route_long_name":"Richmond to SF Int'l Airport SFO/Millbrae","route_type":1,"route_url":"https://www.bart.gov/schedules/bylineresults?route=7","route_color":"#FF0000","route_text_color":"#FFFFFF"}],"agency_name":"Bay Area Rapid Transit"},"geometry":{"type":"Point","coordinates":[-122.353117,37.936731]}},{"type":"Feature","properties":{"stop_id":"S20-1","stop_code":"909201","stop_name":"Warm Springs / South Fremont","zone_id":"WARM","location_type":0,"parent_station":"WARM","platform_code":"1","routes":[{"route_id":"4","route_short_name":"Orange-S","route_long_name":"Richmond to Berryessa/North San Jose","route_type":1,"route_url":"https://www.bart.gov/schedules/bylineresults?route=4","route_color":"#FF9933","route_text_color":"#000000"},{"route_id":"6","route_short_name":"Green-N","route_long_name":"Daly City to Berryessa/North San Jose","route_type":1,"route_url":"https://www.bart.gov/schedules/bylineresults?route=6","route_color":"#339933","route_text_color":"#FFFFFF"}],"agency_name":"Bay Area Rapid Transit"},"geometry":{"type":"Point","coordinates":[-121.939459,37.502274]}},{"type":"Feature","properties":{"stop_id":"S20-2","stop_code":"909202","stop_name":"Warm Springs / South Fremont","zone_id":"WARM","location_type":0,"parent_station":"WARM","platform_code":"2","routes":[{"route_id":"3","route_short_name":"Orange-N","route_long_name":"Berryessa/North San Jose to Richmond","route_type":1,"route_url":"https://www.bart.gov/schedules/bylineresults?route=3","route_color":"#FF9933","route_text_color":"#000000"},{"route_id":"5","route_short_name":"Green-S","route_long_name":"Berryessa/North San Jose to Daly City","route_type":1,"route_url":"https://www.bart.gov/schedules/bylineresults?route=5","route_color":"#339933","route_text_color":"#FFFFFF"}],"agency_name":"Bay Area Rapid Transit"},"geometry":{"type":"Point","coordinates":[-121.939358,37.502307]}},{"type":"Feature","properties":{"stop_id":"S40-1","stop_code":"909401","stop_name":"Milpitas","zone_id":"MLPT","location_type":0,"parent_station":"MLPT","platform_code":"1","routes":[{"route_id":"4","route_short_name":"Orange-S","route_long_name":"Richmond to Berryessa/North San Jose","route_type":1,"route_url":"https://www.bart.gov/schedules/bylineresults?route=4","route_color":"#FF9933","route_text_color":"#000000"},{"route_id":"6","route_short_name":"Green-N","route_long_name":"Daly City to Berryessa/North San Jose","route_type":1,"route_url":"https://www.bart.gov/schedules/bylineresults?route=6","route_color":"#339933","route_text_color":"#FFFFFF"}],"agency_name":"Bay Area Rapid Transit"},"geometry":{"type":"Point","coordinates":[-121.890883,37.409808]}},{"type":"Feature","properties":{"stop_id":"S40-2","stop_code":"909402","stop_name":"Milpitas","zone_id":"MLPT","location_type":0,"parent_station":"MLPT","platform_code":"2","routes":[{"route_id":"3","route_short_name":"Orange-N","route_long_name":"Berryessa/North San Jose to Richmond","route_type":1,"route_url":"https://www.bart.gov/schedules/bylineresults?route=3","route_color":"#FF9933","route_text_color":"#000000"},{"route_id":"5","route_short_name":"Green-S","route_long_name":"Berryessa/North San Jose to Daly City","route_type":1,"route_url":"https://www.bart.gov/schedules/bylineresults?route=5","route_color":"#339933","route_text_color":"#FFFFFF"}],"agency_name":"Bay Area Rapid Transit"},"geometry":{"type":"Point","coordinates":[-121.890803,37.409836]}},{"type":"Feature","properties":{"stop_id":"S50-1","stop_code":"909501","stop_name":"Berryessa / North San Jose","zone_id":"BERY","location_type":0,"parent_station":"BERY","platform_code":"1","routes":[{"route_id":"5","route_short_name":"Green-S","route_long_name":"Berryessa/North San Jose to Daly City","route_type":1,"route_url":"https://www.bart.gov/schedules/bylineresults?route=5","route_color":"#339933","route_text_color":"#FFFFFF"},{"route_id":"6","route_short_name":"Green-N","route_long_name":"Daly City to Berryessa/North San Jose","route_type":1,"route_url":"https://www.bart.gov/schedules/bylineresults?route=6","route_color":"#339933","route_text_color":"#FFFFFF"}],"agency_name":"Bay Area Rapid Transit"},"geometry":{"type":"Point","coordinates":[-121.874759,37.368474]}},{"type":"Feature","properties":{"stop_id":"S50-2","stop_code":"909502","stop_name":"Berryessa / North San Jose","zone_id":"BERY","location_type":0,"parent_station":"BERY","platform_code":"2","routes":[{"route_id":"3","route_short_name":"Orange-N","route_long_name":"Berryessa/North San Jose to Richmond","route_type":1,"route_url":"https://www.bart.gov/schedules/bylineresults?route=3","route_color":"#FF9933","route_text_color":"#000000"},{"route_id":"4","route_short_name":"Orange-S","route_long_name":"Richmond to Berryessa/North San Jose","route_type":1,"route_url":"https://www.bart.gov/schedules/bylineresults?route=4","route_color":"#FF9933","route_text_color":"#000000"}],"agency_name":"Bay Area Rapid Transit"},"geometry":{"type":"Point","coordinates":[-121.874661,37.368495]}},{"type":"Feature","properties":{"stop_id":"W10-1","stop_code":"906101","stop_name":"Colma","zone_id":"COLM","location_type":0,"parent_station":"COLM","platform_code":"1","routes":[{"route_id":"1","route_short_name":"Yellow-S","route_long_name":"Antioch to SF Int'l Airport SFO/Millbrae","route_type":1,"route_url":"https://www.bart.gov/schedules/bylineresults?route=1","route_color":"#FFFF33","route_text_color":"#000000"},{"route_id":"7","route_short_name":"Red-S","route_long_name":"Richmond to SF Int'l Airport SFO/Millbrae","route_type":1,"route_url":"https://www.bart.gov/schedules/bylineresults?route=7","route_color":"#FF0000","route_text_color":"#FFFFFF"}],"agency_name":"Bay Area Rapid Transit"},"geometry":{"type":"Point","coordinates":[-122.466167,37.684642]}},{"type":"Feature","properties":{"stop_id":"W10-2","stop_code":"906102","stop_name":"Colma","zone_id":"COLM","location_type":0,"parent_station":"COLM","platform_code":"2","routes":[{"route_id":"2","route_short_name":"Yellow-N","route_long_name":"Millbrae/SF Int'l SFO to Antioch","route_type":1,"route_url":"https://www.bart.gov/schedules/bylineresults?route=2","route_color":"#FFFF33","route_text_color":"#000000"},{"route_id":"8","route_short_name":"Red-N","route_long_name":"Millbrae/SF Int'l Airport SFO to Richmond","route_type":1,"route_url":"https://www.bart.gov/schedules/bylineresults?route=8","route_color":"#FF0000","route_text_color":"#FFFFFF"}],"agency_name":"Bay Area Rapid Transit"},"geometry":{"type":"Point","coordinates":[-122.466115,37.684691]}},{"type":"Feature","properties":{"stop_id":"W20-1","stop_code":"906201","stop_name":"South San Francisco","zone_id":"SSAN","location_type":0,"parent_station":"SSAN","platform_code":"1","routes":[{"route_id":"1","route_short_name":"Yellow-S","route_long_name":"Antioch to SF Int'l Airport SFO/Millbrae","route_type":1,"route_url":"https://www.bart.gov/schedules/bylineresults?route=1","route_color":"#FFFF33","route_text_color":"#000000"},{"route_id":"7","route_short_name":"Red-S","route_long_name":"Richmond to SF Int'l Airport SFO/Millbrae","route_type":1,"route_url":"https://www.bart.gov/schedules/bylineresults?route=7","route_color":"#FF0000","route_text_color":"#FFFFFF"}],"agency_name":"Bay Area Rapid Transit"},"geometry":{"type":"Point","coordinates":[-122.444254,37.664437]}},{"type":"Feature","properties":{"stop_id":"W20-2","stop_code":"906202","stop_name":"South San Francisco","zone_id":"SSAN","location_type":0,"parent_station":"SSAN","platform_code":"2","routes":[{"route_id":"2","route_short_name":"Yellow-N","route_long_name":"Millbrae/SF Int'l SFO to Antioch","route_type":1,"route_url":"https://www.bart.gov/schedules/bylineresults?route=2","route_color":"#FFFF33","route_text_color":"#000000"},{"route_id":"8","route_short_name":"Red-N","route_long_name":"Millbrae/SF Int'l Airport SFO to Richmond","route_type":1,"route_url":"https://www.bart.gov/schedules/bylineresults?route=8","route_color":"#FF0000","route_text_color":"#FFFFFF"}],"agency_name":"Bay Area Rapid Transit"},"geometry":{"type":"Point","coordinates":[-122.444193,37.664497]}},{"type":"Feature","properties":{"stop_id":"W30-1","stop_code":"906301","stop_name":"San Bruno","zone_id":"SBRN","location_type":0,"parent_station":"SBRN","platform_code":"1","routes":[{"route_id":"1","route_short_name":"Yellow-S","route_long_name":"Antioch to SF Int'l Airport SFO/Millbrae","route_type":1,"route_url":"https://www.bart.gov/schedules/bylineresults?route=1","route_color":"#FFFF33","route_text_color":"#000000"},{"route_id":"7","route_short_name":"Red-S","route_long_name":"Richmond to SF Int'l Airport SFO/Millbrae","route_type":1,"route_url":"https://www.bart.gov/schedules/bylineresults?route=7","route_color":"#FF0000","route_text_color":"#FFFFFF"}],"agency_name":"Bay Area Rapid Transit"},"geometry":{"type":"Point","coordinates":[-122.416384,37.63772]}},{"type":"Feature","properties":{"stop_id":"W30-2","stop_code":"906302","stop_name":"San Bruno","zone_id":"SBRN","location_type":0,"parent_station":"SBRN","platform_code":"2","routes":[{"route_id":"2","route_short_name":"Yellow-N","route_long_name":"Millbrae/SF Int'l SFO to Antioch","route_type":1,"route_url":"https://www.bart.gov/schedules/bylineresults?route=2","route_color":"#FFFF33","route_text_color":"#000000"},{"route_id":"8","route_short_name":"Red-N","route_long_name":"Millbrae/SF Int'l Airport SFO to Richmond","route_type":1,"route_url":"https://www.bart.gov/schedules/bylineresults?route=8","route_color":"#FF0000","route_text_color":"#FFFFFF"}],"agency_name":"Bay Area Rapid Transit"},"geometry":{"type":"Point","coordinates":[-122.416292,37.637751]}},{"type":"Feature","properties":{"stop_id":"W40-3","stop_code":"906403","stop_name":"Millbrae (Caltrain Transfer Platform)","zone_id":"MLBR","location_type":0,"parent_station":"MLBR","platform_code":"3","routes":[{"route_id":"1","route_short_name":"Yellow-S","route_long_name":"Antioch to SF Int'l Airport SFO/Millbrae","route_type":1,"route_url":"https://www.bart.gov/schedules/bylineresults?route=1","route_color":"#FFFF33","route_text_color":"#000000"},{"route_id":"2","route_short_name":"Yellow-N","route_long_name":"Millbrae/SF Int'l SFO to Antioch","route_type":1,"route_url":"https://www.bart.gov/schedules/bylineresults?route=2","route_color":"#FFFF33","route_text_color":"#000000"},{"route_id":"7","route_short_name":"Red-S","route_long_name":"Richmond to SF Int'l Airport SFO/Millbrae","route_type":1,"route_url":"https://www.bart.gov/schedules/bylineresults?route=7","route_color":"#FF0000","route_text_color":"#FFFFFF"},{"route_id":"8","route_short_name":"Red-N","route_long_name":"Millbrae/SF Int'l Airport SFO to Richmond","route_type":1,"route_url":"https://www.bart.gov/schedules/bylineresults?route=8","route_color":"#FF0000","route_text_color":"#FFFFFF"}],"agency_name":"Bay Area Rapid Transit"},"geometry":{"type":"Point","coordinates":[-122.38684,37.600199]}},{"type":"Feature","properties":{"stop_id":"Y10-1","stop_code":"907101","stop_name":"San Francisco International Airport","zone_id":"SFIA","location_type":0,"parent_station":"SFIA","platform_code":"1","routes":[{"route_id":"1","route_short_name":"Yellow-S","route_long_name":"Antioch to SF Int'l Airport SFO/Millbrae","route_type":1,"route_url":"https://www.bart.gov/schedules/bylineresults?route=1","route_color":"#FFFF33","route_text_color":"#000000"},{"route_id":"2","route_short_name":"Yellow-N","route_long_name":"Millbrae/SF Int'l SFO to Antioch","route_type":1,"route_url":"https://www.bart.gov/schedules/bylineresults?route=2","route_color":"#FFFF33","route_text_color":"#000000"}],"agency_name":"Bay Area Rapid Transit"},"geometry":{"type":"Point","coordinates":[-122.39196,37.616189]}},{"type":"Feature","properties":{"stop_id":"Y10-2","stop_code":"907102","stop_name":"San Francisco International Airport","zone_id":"SFIA","location_type":0,"parent_station":"SFIA","platform_code":"2","routes":[{"route_id":"1","route_short_name":"Yellow-S","route_long_name":"Antioch to SF Int'l Airport SFO/Millbrae","route_type":1,"route_url":"https://www.bart.gov/schedules/bylineresults?route=1","route_color":"#FFFF33","route_text_color":"#000000"},{"route_id":"2","route_short_name":"Yellow-N","route_long_name":"Millbrae/SF Int'l SFO to Antioch","route_type":1,"route_url":"https://www.bart.gov/schedules/bylineresults?route=2","route_color":"#FFFF33","route_text_color":"#000000"},{"route_id":"7","route_short_name":"Red-S","route_long_name":"Richmond to SF Int'l Airport SFO/Millbrae","route_type":1,"route_url":"https://www.bart.gov/schedules/bylineresults?route=7","route_color":"#FF0000","route_text_color":"#FFFFFF"},{"route_id":"8","route_short_name":"Red-N","route_long_name":"Millbrae/SF Int'l Airport SFO to Richmond","route_type":1,"route_url":"https://www.bart.gov/schedules/bylineresults?route=8","route_color":"#FF0000","route_text_color":"#FFFFFF"}],"agency_name":"Bay Area Rapid Transit"},"geometry":{"type":"Point","coordinates":[-122.392049,37.616091]}}]}